STARLETTE               
1 07646U 75010A   23123.51786188 -.00000128  00000+0  95174-5 0  9993
2 07646  49.8249 286.9226 0205725 254.8686 102.9367 13.82318250436752
LAGEOS 1                
1 08820U 76039A   23123.30250410  .00000027  00000+0  00000+0 0  9996
2 08820 109.8130 148.5742 0045021 187.1943 160.1782  6.38664709840273
AJISAI (EGS)            
1 16908U 86061A   23123.55040215 -.00000115  00000+0 -12384-3 0  9997
2 16908  50.0107  54.7770 0011264 156.3459   6.1087 12.44500072338355
COSMOS 1989 (ETALON 1)  
1 19751U 89001C   23123.29507578  .00000081  00000+0  00000+0 0  9992
2 19751  64.3961 111.3780 0023989 214.6282 154.9395  2.13156279267053
COSMOS 2024 (ETALON 2)  
1 20026U 89039C   23123.57703692 -.00000039  00000+0  00000+0 0  9990
2 20026  65.4811 349.5268 0018697 218.2535 331.0040  2.13204421264182
LAGEOS 2                
1 22195U 92070B   23123.60371112 -.00000009  00000+0  00000+0 0  9997
2 22195  52.6511 267.4818 0138775  48.7118 288.8404  6.47293870721579
STELLA                  
1 22824U 93061B   23123.55271543 -.00000023  00000+0  95727-5 0  9990
2 22824  98.9328 157.0883 0005592 315.9599 202.0591 14.27403746542203
LARES                   
1 38077U 12006A   23123.35357136 -.00000029  00000+0  58519-4 0  9991
2 38077  69.4926  80.8931 0007012  26.2009 333.9371 12.54931585514047
